{
  "type": "FeatureCollection",
  "features": [
    {
      "type": "Feature",
      "properties": {
        "norad_id": 41773,
        "name": "SKYSAT-C2",
        "group": "resource",
        "lat": 75.99209769452831,
        "lon": -129.25504747646792,
        "alt_km": 446.6627491335357,
        "timestamp": "2025-12-22T23:36:20.357152+00:00",
        "meta_object_name": "SKYSAT-C2",
        "meta_object_id": "2016-058D",
        "meta_epoch": "2025-12-22T13:47:28.316256",
        "meta_mean_motion": 15.37479301,
        "meta_eccentricity": 0.00031137,
        "meta_inclination": 97.0346,
        "meta_ra_of_asc_node": 20.6848,
        "meta_arg_of_pericenter": 5.7873,
        "meta_mean_anomaly": 354.3408,
        "meta_ephemeris_type": 0,
        "meta_classification_type": "U",
        "meta_norad_cat_id": 41773,
        "meta_element_set_no": 999,
        "meta_rev_at_epoch": 51787,
        "meta_bstar": 0.00032762855,
        "meta_mean_motion_dot": 0.00011972,
        "meta_mean_motion_ddot": 0,
        "tle_line1": "1 41773U 16058D   25356.57463329  .00011972  00000+0  32763-3 0  9995",
        "tle_line2": "2 41773  97.0346  20.6848 0003113   5.7873 354.3408 15.37479301517874"
      },
      "geometry": {
        "type": "Point",
        "coordinates": [
          -129.25504747646792,
          75.99209769452831
        ]
      }
    },
    {
      "type": "Feature",
      "properties": {
        "norad_id": 41774,
        "name": "SKYSAT-C3",
        "group": "resource",
        "lat": -15.418644112767614,
        "lon": -151.6677796122831,
        "alt_km": 437.0552143527393,
        "timestamp": "2025-12-22T23:36:20.357162+00:00",
        "meta_object_name": "SKYSAT-C3",
        "meta_object_id": "2016-058E",
        "meta_epoch": "2025-12-22T02:33:05.139936",
        "meta_mean_motion": 15.44711366,
        "meta_eccentricity": 0.00020568,
        "meta_inclination": 96.9285,
        "meta_ra_of_asc_node": 29.4174,
        "meta_arg_of_pericenter": 107.2334,
        "meta_mean_anomaly": 252.9141,
        "meta_ephemeris_type": 0,
        "meta_classification_type": "U",
        "meta_norad_cat_id": 41774,
        "meta_element_set_no": 999,
        "meta_rev_at_epoch": 51870,
        "meta_bstar": 0.00042430023,
        "meta_mean_motion_dot": 0.00019752,
        "meta_mean_motion_ddot": 0,
        "tle_line1": "1 41774U 16058E   25356.10630949  .00019752  00000+0  42430-3 0  9995",
        "tle_line2": "2 41774  96.9285  29.4174 0002056 107.2334 252.9141 15.44711366518707"
      },
      "geometry": {
        "type": "Point",
        "coordinates": [
          -151.6677796122831,
          -15.418644112767614
        ]
      }
    },
    {
      "type": "Feature",
      "properties": {
        "norad_id": 41785,
        "name": "ALSAT 1B",
        "group": "resource",
        "lat": -80.80595227905278,
        "lon": 130.6894282252115,
        "alt_km": 669.2445509458566,
        "timestamp": "2025-12-22T23:36:20.357172+00:00",
        "meta_object_name": "ALSAT 1B",
        "meta_object_id": "2016-059C",
        "meta_epoch": "2025-12-22T14:14:55.582368",
        "meta_mean_motion": 14.72084419,
        "meta_eccentricity": 0.00108027,
        "meta_inclination": 97.7803,
        "meta_ra_of_asc_node": 7.9579,
        "meta_arg_of_pericenter": 75.6929,
        "meta_mean_anomaly": 284.5478,
        "meta_ephemeris_type": 0,
        "meta_classification_type": "U",
        "meta_norad_cat_id": 41785,
        "meta_element_set_no": 999,
        "meta_rev_at_epoch": 49459,
        "meta_bstar": 5.6687532e-05,
        "meta_mean_motion_dot": 3.1e-06,
        "meta_mean_motion_ddot": 0,
        "tle_line1": "1 41785U 16059C   25356.59369887  .00000310  00000+0  56688-4 0  9992",
        "tle_line2": "2 41785  97.7803   7.9579 0010802  75.6929 284.5478 14.72084419494596"
      },
      "geometry": {
        "type": "Point",
        "coordinates": [
          130.6894282252115,
          -80.80595227905278
        ]
      }
    },
    {
      "type": "Feature",
      "properties": {
        "norad_id": 41787,
        "name": "PATHFINDER 1",
        "group": "resource",
        "lat": 10.70818684830047,
        "lon": -179.23023946116302,
        "alt_km": 681.2512499765426,
        "timestamp": "2025-12-22T23:36:20.357182+00:00",
        "meta_object_name": "PATHFINDER 1",
        "meta_object_id": "2016-059E",
        "meta_epoch": "2025-12-22T13:01:13.857600",
        "meta_mean_motion": 14.67337451,
        "meta_eccentricity": 0.00297381,
        "meta_inclination": 97.8137,
        "meta_ra_of_asc_node": 358.8612,
        "meta_arg_of_pericenter": 51.3287,
        "meta_mean_anomaly": 309.0572,
        "meta_ephemeris_type": 0,
        "meta_classification_type": "U",
        "meta_norad_cat_id": 41787,
        "meta_element_set_no": 999,
        "meta_rev_at_epoch": 49380,
        "meta_bstar": 0.00013297129,
        "meta_mean_motion_dot": 7.09e-06,
        "meta_mean_motion_ddot": 0,
        "tle_line1": "1 41787U 16059E   25356.54252150  .00000709  00000+0  13297-3 0  9993",
        "tle_line2": "2 41787  97.8137 358.8612 0029738  51.3287 309.0572 14.67337451493803"
      },
      "geometry": {
        "type": "Point",
        "coordinates": [
          -179.23023946116302,
          10.70818684830047
        ]
      }
    },
    {
      "type": "Feature",
      "properties": {
        "norad_id": 41790,
        "name": "SCATSAT 1",
        "group": "resource",
        "lat": -49.55279717738839,
        "lon": -135.89028191240973,
        "alt_km": 667.09480344247,
        "timestamp": "2025-12-22T23:36:20.357192+00:00",
        "meta_object_name": "SCATSAT 1",
        "meta_object_id": "2016-059H",
        "meta_epoch": "2025-12-22T14:27:15.854112",
        "meta_mean_motion": 14.78966851,
        "meta_eccentricity": 0.00564639,
        "meta_inclination": 98.1449,
        "meta_ra_of_asc_node": 53.3952,
        "meta_arg_of_pericenter": 96.9229,
        "meta_mean_anomaly": 263.8409,
        "meta_ephemeris_type": 0,
        "meta_classification_type": "U",
        "meta_norad_cat_id": 41790,
        "meta_element_set_no": 999,
        "meta_rev_at_epoch": 7548,
        "meta_bstar": 0.00017791286,
        "meta_mean_motion_dot": 1.292e-05,
        "meta_mean_motion_ddot": 0,
        "tle_line1": "1 41790U 16059H   25356.60226683  .00001292  00000+0  17791-3 0  9997",
        "tle_line2": "2 41790  98.1449  53.3952 0056463  96.9229 263.8409 14.78966851 75487"
      },
      "geometry": {
        "type": "Point",
        "coordinates": [
          -135.89028191240973,
          -49.55279717738839
        ]
      }
    },
    {
      "type": "Feature",
      "properties": {
        "norad_id": 41875,
        "name": "GOKTURK 1A",
        "group": "resource",
        "lat": 76.22461612622845,
        "lon": -146.5228996217873,
        "alt_km": 676.0590672547378,
        "timestamp": "2025-12-22T23:36:20.357203+00:00",
        "meta_object_name": "GOKTURK 1A",
        "meta_object_id": "2016-073A",
        "meta_epoch": "2025-12-22T15:02:17.451168",
        "meta_mean_motion": 14.62789608,
        "meta_eccentricity": 0.00012887,
        "meta_inclination": 98.1433,
        "meta_ra_of_asc_node": 248.8599,
        "meta_arg_of_pericenter": 83.0655,
        "meta_mean_anomaly": 277.0694,
        "meta_ephemeris_type": 0,
        "meta_classification_type": "U",
        "meta_norad_cat_id": 41875,
        "meta_element_set_no": 999,
        "meta_rev_at_epoch": 48301,
        "meta_bstar": 7.8480153e-05,
        "meta_mean_motion_dot": 3.54e-06,
        "meta_mean_motion_ddot": 0,
        "tle_line1": "1 41875U 16073A   25356.62659087  .00000354  00000+0  78480-4 0  9998",
        "tle_line2": "2 41875  98.1433 248.8599 0001288  83.0655 277.0694 14.62789608483018"
      },
      "geometry": {
        "type": "Point",
        "coordinates": [
          -146.5228996217873,
          76.22461612622845
        ]
      }
    },
    {
      "type": "Feature",
      "properties": {
        "norad_id": 41877,
        "name": "RESOURCESAT-2A",
        "group": "resource",
        "lat": 50.69511367619301,
        "lon": 55.90436793962576,
        "alt_km": 816.2095193797322,
        "timestamp": "2025-12-22T23:36:20.357213+00:00",
        "meta_object_name": "RESOURCESAT-2A",
        "meta_object_id": "2016-074A",
        "meta_epoch": "2025-12-22T14:55:05.145312",
        "meta_mean_motion": 14.2160409,
        "meta_eccentricity": 0.0001479,
        "meta_inclination": 98.7748,
        "meta_ra_of_asc_node": 66.4201,
        "meta_arg_of_pericenter": 209.6695,
        "meta_mean_anomaly": 150.4399,
        "meta_ephemeris_type": 0,
        "meta_classification_type": "U",
        "meta_norad_cat_id": 41877,
        "meta_element_set_no": 999,
        "meta_rev_at_epoch": 46921,
        "meta_bstar": 0.00018307976,
        "meta_mean_motion_dot": 3.57e-06,
        "meta_mean_motion_ddot": 0,
        "tle_line1": "1 41877U 16074A   25356.62158733  .00000357  00000+0  18308-3 0  9998",
        "tle_line2": "2 41877  98.7748  66.4201 0001479 209.6695 150.4399 14.21604090469219"
      },
      "geometry": {
        "type": "Point",
        "coordinates": [
          55.90436793962576,
          50.69511367619301
        ]
      }
    }
  ]
}